{
  "type": "FeatureCollection",
  "features": [
    {
      "type": "Feature",
      "properties": {
        "norad_id": 66956,
        "name": "HULIANWANG DIGUI-117",
        "group": "last-30-days",
        "lat": -55.789111256475124,
        "lon": -19.310870293373586,
        "alt_km": 1012.4009782491084,
        "timestamp": "2025-12-13T13:34:33.866977+00:00",
        "meta_object_name": "HULIANWANG DIGUI-117",
        "meta_object_id": "2025-287D",
        "meta_epoch": "2025-12-11T19:45:00.614592",
        "meta_mean_motion": 13.6901764,
        "meta_eccentricity": 0.00072845,
        "meta_inclination": 86.4968,
        "meta_ra_of_asc_node": 346.4938,
        "meta_arg_of_pericenter": 195.1574,
        "meta_mean_anomaly": 164.9368,
        "meta_ephemeris_type": 0,
        "meta_classification_type": "U",
        "meta_norad_cat_id": 66956,
        "meta_element_set_no": 999,
        "meta_rev_at_epoch": 40,
        "meta_bstar": 1.8810541e-05,
        "meta_mean_motion_dot": 3.3e-07,
        "meta_mean_motion_ddot": 0,
        "tle_line1": "1 66956U 25287D   25345.82292378  .00000033  00000+0  18811-4 0  9994",
        "tle_line2": "2 66956  86.4968 346.4938 0007284 195.1574 164.9368 13.69017640   403"
      },
      "geometry": {
        "type": "Point",
        "coordinates": [
          -19.310870293373586,
          -55.789111256475124
        ]
      }
    },
    {
      "type": "Feature",
      "properties": {
        "norad_id": 66957,
        "name": "HULIANWANG DIGUI-118",
        "group": "last-30-days",
        "lat": -53.8869743080327,
        "lon": -18.965563535665126,
        "alt_km": 1012.2342289902754,
        "timestamp": "2025-12-13T13:34:33.866986+00:00",
        "meta_object_name": "HULIANWANG DIGUI-118",
        "meta_object_id": "2025-287E",
        "meta_epoch": "2025-12-12T16:47:31.774848",
        "meta_mean_motion": 13.69137019,
        "meta_eccentricity": 0.00072192,
        "meta_inclination": 86.4945,
        "meta_ra_of_asc_node": 346.17,
        "meta_arg_of_pericenter": 190.5502,
        "meta_mean_anomaly": 169.5507,
        "meta_ephemeris_type": 0,
        "meta_classification_type": "U",
        "meta_norad_cat_id": 66957,
        "meta_element_set_no": 999,
        "meta_rev_at_epoch": 52,
        "meta_bstar": -0.00019372766,
        "meta_mean_motion_dot": -1.51e-06,
        "meta_mean_motion_ddot": 0,
        "tle_line1": "1 66957U 25287E   25346.69967332 -.00000151  00000+0 -19373-3 0  9996",
        "tle_line2": "2 66957  86.4945 346.1700 0007219 190.5502 169.5507 13.69137019   523"
      },
      "geometry": {
        "type": "Point",
        "coordinates": [
          -18.965563535665126,
          -53.8869743080327
        ]
      }
    },
    {
      "type": "Feature",
      "properties": {
        "norad_id": 66958,
        "name": "CZ-6A R/B",
        "group": "last-30-days",
        "lat": 9.592423348021194,
        "lon": -13.621656147297823,
        "alt_km": 912.1541761101244,
        "timestamp": "2025-12-13T13:34:33.866996+00:00",
        "meta_object_name": "CZ-6A R/B",
        "meta_object_id": "2025-287F",
        "meta_epoch": "2025-12-12T23:45:26.611776",
        "meta_mean_motion": 13.94919345,
        "meta_eccentricity": 0.01072376,
        "meta_inclination": 86.5058,
        "meta_ra_of_asc_node": 346.0055,
        "meta_arg_of_pericenter": 101.4025,
        "meta_mean_anomaly": 259.9218,
        "meta_ephemeris_type": 0,
        "meta_classification_type": "U",
        "meta_norad_cat_id": 66958,
        "meta_element_set_no": 999,
        "meta_rev_at_epoch": 57,
        "meta_bstar": 0.000149332,
        "meta_mean_motion_dot": 2.29e-06,
        "meta_mean_motion_ddot": 0,
        "tle_line1": "1 66958U 25287F   25346.98989134  .00000229  00000+0  14933-3 0  9994",
        "tle_line2": "2 66958  86.5058 346.0055 0107237 101.4025 259.9218 13.94919345   570"
      },
      "geometry": {
        "type": "Point",
        "coordinates": [
          -13.621656147297823,
          9.592423348021194
        ]
      }
    },
    {
      "type": "Feature",
      "properties": {
        "norad_id": 66988,
        "name": "YAOGAN-47",
        "group": "last-30-days",
        "lat": -20.259534048280134,
        "lon": -130.10901870472418,
        "alt_km": 502.0728812461339,
        "timestamp": "2025-12-13T13:34:33.867005+00:00",
        "meta_object_name": "YAOGAN-47",
        "meta_object_id": "2025-289A",
        "meta_epoch": "2025-12-11T14:58:29.248032",
        "meta_mean_motion": 15.23120362,
        "meta_eccentricity": 8.584e-05,
        "meta_inclination": 97.5268,
        "meta_ra_of_asc_node": 50.7421,
        "meta_arg_of_pericenter": 73.685,
        "meta_mean_anomaly": 286.448,
        "meta_ephemeris_type": 0,
        "meta_classification_type": "U",
        "meta_norad_cat_id": 66988,
        "meta_element_set_no": 999,
        "meta_rev_at_epoch": 37,
        "meta_bstar": 0.00024920475,
        "meta_mean_motion_dot": 5.809e-05,
        "meta_mean_motion_ddot": 0,
        "tle_line1": "1 66988U 25289A   25345.62394963  .00005809  00000+0  24920-3 0  9995",
        "tle_line2": "2 66988  97.5268  50.7421 0000858  73.6850 286.4480 15.23120362   372"
      },
      "geometry": {
        "type": "Point",
        "coordinates": [
          -130.10901870472418,
          -20.259534048280134
        ]
      }
    },
    {
      "type": "Feature",
      "properties": {
        "norad_id": 66989,
        "name": "CZ-4B R/B",
        "group": "last-30-days",
        "lat": 37.3903681790124,
        "lon": -121.23163446316714,
        "alt_km": 442.5268627856376,
        "timestamp": "2025-12-13T13:34:33.867015+00:00",
        "meta_object_name": "CZ-4B R/B",
        "meta_object_id": "2025-289B",
        "meta_epoch": "2025-12-12T21:39:12.187296",
        "meta_mean_motion": 15.67199194,
        "meta_eccentricity": 0.01493632,
        "meta_inclination": 97.5266,
        "meta_ra_of_asc_node": 52.2573,
        "meta_arg_of_pericenter": 2.333,
        "meta_mean_anomaly": 357.8593,
        "meta_ephemeris_type": 0,
        "meta_classification_type": "U",
        "meta_norad_cat_id": 66989,
        "meta_element_set_no": 999,
        "meta_rev_at_epoch": 59,
        "meta_bstar": 0.00085236852,
        "meta_mean_motion_dot": 0.00170532,
        "meta_mean_motion_ddot": 1.0424924e-05,
        "tle_line1": "1 66989U 25289B   25346.90222439  .00170532  10425-4  85237-3 0  9997",
        "tle_line2": "2 66989  97.5266  52.2573 0149363   2.3330 357.8593 15.67199194   592"
      },
      "geometry": {
        "type": "Point",
        "coordinates": [
          -121.23163446316714,
          37.3903681790124
        ]
      }
    },
    {
      "type": "Feature",
      "properties": {
        "norad_id": 66990,
        "name": "TJS-22",
        "group": "last-30-days",
        "lat": 1.7066530106369824,
        "lon": -54.997334895566844,
        "alt_km": 35706.3140247833,
        "timestamp": "2025-12-13T13:34:33.867026+00:00",
        "meta_object_name": "TJS-22",
        "meta_object_id": "2025-290A",
        "meta_epoch": "2025-12-10T07:11:32.845344",
        "meta_mean_motion": 2.15443148,
        "meta_eccentricity": 0.6664534,
        "meta_inclination": 20.1261,
        "meta_ra_of_asc_node": 301.1464,
        "meta_arg_of_pericenter": 180.6877,
        "meta_mean_anomaly": 177.6237,
        "meta_ephemeris_type": 0,
        "meta_classification_type": "U",
        "meta_norad_cat_id": 66990,
        "meta_element_set_no": 999,
        "meta_rev_at_epoch": 3,
        "meta_bstar": 0.079788243,
        "meta_mean_motion_dot": -3.8e-07,
        "meta_mean_motion_ddot": 0,
        "tle_line1": "1 66990U 25290A   25344.29968571 -.00000038  00000+0  79788-1 0  9994",
        "tle_line2": "2 66990  20.1261 301.1464 6664534 180.6877 177.6237  2.15443148    32"
      },
      "geometry": {
        "type": "Point",
        "coordinates": [
          -54.997334895566844,
          1.7066530106369824
        ]
      }
    },
    {
      "type": "Feature",
      "properties": {
        "norad_id": 66991,
        "name": "CZ-3B R/B",
        "group": "last-30-days",
        "lat": -7.07245293020882,
        "lon": -71.92494198444548,
        "alt_km": 30566.759213334608,
        "timestamp": "2025-12-13T13:34:33.867036+00:00",
        "meta_object_name": "CZ-3B R/B",
        "meta_object_id": "2025-290B",
        "meta_epoch": "2025-12-10T06:44:55.577184",
        "meta_mean_motion": 2.37676924,
        "meta_eccentricity": 0.72420555,
        "meta_inclination": 28.4645,
        "meta_ra_of_asc_node": 302.5976,
        "meta_arg_of_pericenter": 179.3847,
        "meta_mean_anomaly": 182.8677,
        "meta_ephemeris_type": 0,
        "meta_classification_type": "U",
        "meta_norad_cat_id": 66991,
        "meta_element_set_no": 999,
        "meta_rev_at_epoch": 3,
        "meta_bstar": 0.00043781284,
        "meta_mean_motion_dot": 0.00018897,
        "meta_mean_motion_ddot": 4.56211e-07,
        "tle_line1": "1 66991U 25290B   25344.28119881  .00018897  45621-6  43781-3 0  9998",
        "tle_line2": "2 66991  28.4645 302.5976 7242055 179.3847 182.8677  2.37676924    36"
      },
      "geometry": {
        "type": "Point",
        "coordinates": [
          -71.92494198444548,
          -7.07245293020882
        ]
      }
    }
  ]
}